YAMAL 202               
1 28089U 03053A   25008.85282222 -.00000074  00000+0  00000+0 0  9994
2 28089   5.0144  77.3092 0006032 198.8348 302.9336  1.00271238 77445
UFO 11 (USA 174)        
1 28117U 03057A   25009.07618885 -.00000097  00000+0  00000+0 0  9998
2 28117   8.3934  36.0862 0004164 244.6969 290.7205  1.00273373 77160
USA 176 (DSP 22)        
1 28158U 04004A   25008.05164156 -.00000216  00000+0  00000+0 0  9993
2 28158  11.3409  29.7231 0001297 271.2356 272.8488  1.00273067 27669
ABS-4 (MOBISAT-1)       
1 28184U 04007A   25008.76101935  .00000047  00000+0  00000+0 0  9990
2 28184   4.7083  78.3958 0007069 211.5538 153.5321  1.00271616 47087
EUTELSAT 7A             
1 28187U 04008A   25008.79270088  .00000111  00000+0  00000+0 0  9995
2 28187   4.4936  78.2653 0004564 209.5358 326.9188  1.00269595 76092
AMC-11                  
1 28252U 04017A   25008.58817551 -.00000038  00000+0  00000+0 0  9996
2 28252   0.0299 316.0104 0002728 338.9741 274.0323  1.00274207 75444
INTELSAT 10-02          
1 28358U 04022A   25008.96714748  .00000000  00000+0  00000+0 0  9993
2 28358   0.0290 276.3952 0001315  48.6869 130.8331  1.00268662 75309
ANIK F2                 
1 28378U 04027A   25008.86976392 -.00000039  00000+0  00000+0 0  9997
2 28378   1.9293  86.5046 0001189 279.7139 304.4176  1.00271771 36000
AMC-15                  
1 28446U 04041A   25008.65443069 -.00000077  00000+0  00000+0 0  9998
2 28446   0.0144   4.7377 0002463 271.5938 322.6402  1.00271474 74087
NSS-10                  
1 28526U 05003A   25009.15265134 -.00000246  00000+0  00000+0 0  9995
2 28526   5.1348  76.7790 0003171 217.8281 191.8081  1.00270047 73068
XTAR-EUR                
1 28542U 05005A   25008.84804728  .00000159  00000+0  00000+0 0  9990
2 28542   2.9800  83.2729 0006662 212.0386 147.5967  1.00270348 72930
XM-3 (RHYTHM)           
1 28626U 05008A   25008.80321344 -.00000193  00000+0  00000+0 0  9999
2 28626   0.0129  46.5086 0004438 181.2935  84.7985  1.00270490 37368
INMARSAT 4-F1           
1 28628U 05009A   25008.85568927  .00000040  00000+0  00000+0 0  9997
2 28628   4.5032  41.8309 0002508 257.6748 295.2007  1.00270653 72414
DIRECTV 8               
1 28659U 05019A   25008.93961588  .00000013  00000+0  00000+0 0  9991
2 28659   0.0153  55.7206 0003125 229.6490  42.5597  1.00270416 71921
GALAXY 28 (G-28)        
1 28702U 05022A   25008.87419484 -.00000175  00000+0  00000+0 0  9990
2 28702   1.9444  85.5120 0006770 195.3260  53.5287  1.00270462 46721
THAICOM 4               
1 28786U 05028A   25008.63720983 -.00000351  00000+0  00000+0 0  9997
2 28786   0.0186  38.5004 0002624 242.7155 176.1141  1.00270118 46997
GALAXY 14 (G-14)        
1 28790U 05030A   25008.05458573 -.00000178  00000+0  00000+0 0  9991
2 28790   3.6662  81.3368 0001326 214.7530 139.4236  0.98943316 71025
ANIK F1R                
1 28868U 05036A   25008.87054587 -.00000065  00000+0  00000+0 0  9995
2 28868   2.9646  83.1399 0001836 234.1485 357.4733  1.00271188 41194
SYRACUSE 3A             
1 28885U 05041B   25008.85813369  .00000138  00000+0  00000+0 0  9999
2 28885   3.3023  82.3975 0002732 210.7833 146.1655  1.00271379 70483
INMARSAT 4-F2           
1 28899U 05044A   25008.66724279 -.00000253  00000+0  00000+0 0  9996
2 28899   4.4240  43.1374 0003053 246.4788 202.5369  1.00271876 70268
SPACEWAY 2              
1 28903U 05046B   25008.89591497 -.00000048  00000+0  00000+0 0  9995
2 28903   4.1245  77.8024 0001732  82.0776 291.9772  0.99062912 46084
METEOSAT-9 (MSG-2)      
1 28912U 05049B   25008.75797853  .00000129  00000+0  00000+0 0  9996
2 28912   8.1613  59.0961 0001660 205.2277 162.8150  1.00275356  1756
EUTELSAT 174A           
1 28924U 05052A   25008.85490736  .00000018  00000+0  00000+0 0  9991
2 28924   2.8855  83.0488 0006465 206.2621 301.0671  1.00272796 47076
ECHOSTAR 10             
1 28935U 06003A   25008.86993769 -.00000043  00000+0  00000+0 0  9994
2 28935   0.0377 294.0602 0002126 314.9112  62.6469  1.00271884 69202
SPAINSAT                
1 28945U 06007A   25008.78156097 -.00000204  00000+0  00000+0 0  9994
2 28945   0.0477 236.7481 0005136  31.5180  91.6645  1.00271747 68950
EUTELSAT HOTBIRD 13E    
1 28946U 06007B   25008.88861701 -.00000115  00000+0  00000+0 0  9992
2 28946   0.7441  93.8567 0001284 217.3372 101.3322  1.00272801 69069
JCSAT-5A                
1 29045U 06010A   25008.84852734 -.00000317  00000+0  00000+0 0  9993
2 29045   0.0161 355.1266 0001920 304.9723 246.0437  1.00270432 68513
ASTRA 1KR               
1 29055U 06012A   25008.93660674  .00000131  00000+0  00000+0 0  9999
2 29055   0.0145  38.2057 0004637 218.5341 208.3393  1.00271549 40463
EWS-G1 (GOES 13)        
1 29155U 06018A   25008.88201410 -.00000174  00000+0  00000+0 0  9997
2 29155   3.1643  82.8397 0065204 258.1071  35.6123  0.98830946 38063
GALAXY 16 (G-16)        
1 29236U 06023A   25008.87219659 -.00000115  00000+0  00000+0 0  9991
2 29236   0.0413 227.1858 0002934  62.0308  34.4199  1.00272164 67716
EUTELSAT HOTBIRD 13B    
1 29270U 06032A   25008.90327149  .00000167  00000+0  00000+0 0  9993
2 29270   0.3039  86.4852 0004705 212.4109 168.0633  1.00267947 42059
JCSAT-3A                
1 29272U 06033A   25008.84607000 -.00000333  00000+0  00000+0 0  9992
2 29272   0.0260 292.8049 0001853 357.7399 250.6648  1.00272486 42485
SYRACUSE 3B             
1 29273U 06033B   25008.86368823  .00000032  00000+0  00000+0 0  9997
2 29273   1.5525  86.8547 0005615 202.7617 133.2798  1.00272410 67411
KOREASAT 5 (MUGUNGWHA 5)
1 29349U 06034A   25008.84216042 -.00000347  00000+0  00000+0 0  9995
2 29349   0.4239  91.2977 0002053 237.7116 195.8437  1.00269801 36068
DIRECTV 9S              
1 29494U 06043A   25008.87176219 -.00000102  00000+0  00000+0 0  9999
2 29494   1.0636  87.3741 0003340 206.7999  27.1004  1.00271106 46123
OPTUS D1                
1 29495U 06043B   25008.85047646 -.00000174  00000+0  00000+0 0  9998
2 29495   1.6783  86.2772 0004060 204.1309 276.3672  1.00269236 66865
BADR-4                  
1 29526U 06051A   25008.90327149  .00000156  00000+0  00000+0 0  9996
2 29526   0.6480  85.9170 0008592 219.6695 154.4893  1.00271002 46014
WILDBLUE-1              
1 29643U 06054A   25008.94117973 -.00000039  00000+0  00000+0 0  9996
2 29643   1.4457  87.4149 0002086 199.1305  49.8090  1.00271014 66293
SKYNET 5A               
1 30794U 07007B   25008.81222325 -.00000263  00000+0  00000+0 0  9997
2 30794   3.9606  80.0980 0004227 217.9865 198.1019  1.00271802 65446
ANIK F3                 
1 31102U 07009A   25008.86811319  .00000010  00000+0  00000+0 0  9994
2 31102   0.0131 312.9634 0002247 338.9865  10.5245  1.00275527 41303
ASTRA 1L                
1 31306U 07016A   25008.60257804  .00000131  00000+0  00000+0 0  9997
2 31306   0.0452  12.4228 0005099 283.6231  48.4471  1.00270673 39728
GALAXY 17 (G-17)        
1 31307U 07016B   25008.87497677 -.00000196  00000+0  00000+0 0  9993
2 31307   1.6397  86.6854 0006428 194.2573  57.6969  1.00273127 64544
ZHONGXING-6B            
1 31800U 07031A   25008.81368782 -.00000351  00000+0  00000+0 0  9999
2 31800   1.0426  88.2796 0004684 208.3735 220.1242  1.00267833 64178
DIRECTV 10              
1 31862U 07032A   25008.52744476 -.00000090  00000+0  00000+0 0  9994
2 31862   0.0174 206.9399 0000357  94.1753 254.2848  1.00270273 40331
BSAT-3A                 
1 32019U 07036B   25008.62819851 -.00000338  00000+0  00000+0 0  9999
2 32019   0.0600 228.9404 0003834  35.7741 179.6872  1.00270897 45268
OPTUS D2                
1 32252U 07044A   25008.85212719 -.00000099  00000+0  00000+0 0  9996
2 32252   0.7147  88.8980 0007220 196.7278 289.9035  1.00271412 63314
INTELSAT 11 (IS-11)     
1 32253U 07044B   25008.88331729 -.00000259  00000+0  00000+0 0  9991
2 32253   2.1979  85.2252 0004351 214.3597  84.0644  1.00271267 63239
WGS F1 (USA 195)        
1 32258U 07046A   25008.30813404 -.00000255  00000+0  00000+0 0  9996
2 32258   0.0860  87.8542 0000665 204.2292 244.4179  1.00270474 47072
SKYNET 5B               
1 32294U 07056B   25008.85813369  .00000149  00000+0  00000+0 0  9998
2 32294   3.9129  79.7613 0003888 212.1540 150.7057  1.00271656 62934
ASTRA 4A                
1 32299U 07057A   25008.86368823  .00000044  00000+0  00000+0 0  9999
2 32299   0.0397 294.6667 0002864 342.3471 147.3619  1.00269555 46385
HORIZONS-2              
1 32388U 07063B   25008.87714877 -.00000242  00000+0  00000+0 0  9991
2 32388   1.2454  87.2327 0002151 204.2813  59.1131  1.00270519 62553
THURAYA-3               
1 32404U 08001A   25008.89250667 -.00000295  00000+0  00000+0 0  9995
2 32404   5.1436  33.9324 0002742 255.0217 239.5109  1.00269920 62236
THOR 5                  
1 32487U 08006A   25008.62659797  .00000003  00000+0  00000+0 0  9995
2 32487   0.0488 248.6586 0002617  42.2214  42.3501  1.00270141 62050
AMC-14                  
1 32708U 08011A   25007.75182264  .00000068  00000+0  00000+0 0  9991
2 32708  23.3560  26.8414 0041026 350.7379  18.1273  1.00271921 62905
DIRECTV 11              
1 32729U 08013A   25008.58501330 -.00000113  00000+0  00000+0 0  9999
2 32729   0.0400 210.9356 0000641  41.6118 327.2348  1.00273707 40333
ICO G1                  
1 32763U 08016A   25008.01595414 -.00000163  00000+0  00000+0 0  9999
2 32763   5.2216  36.2899 0002373 265.6732  78.7335  1.00270675 61279
VINASAT-1               
1 32767U 08018A   25008.84852731 -.00000317  00000+0  00000+0 0  9995
2 32767   0.0338 296.5061 0001971   6.9724 242.5686  1.00271137 61334
STAR ONE C2             
1 32768U 08018B   25008.03638387 -.00000263  00000+0  00000+0 0  9996
2 32768   0.0262 352.5178 0002777 298.4989 124.9087  1.00271332 61389
AMOS-3                  
1 32794U 08022A   25008.89096278 -.00000024  00000+0  00000+0 0  9996
2 32794   0.0431 239.8611 0003203  35.1207 150.3008  1.00271690 77075
